NORAD_CAT_ID,OBJECT_NAME,OBJECT_TYPE,EPOCH,MEAN_MOTION,ECCENTRICITY,INCLINATION,RA_OF_ASC_NODE,ARG_OF_PERICENTER,MEAN_ANOMALY,BSTAR,MEAN_MOTION_DOT,MEAN_MOTION_DDOT,TLE_LINE0,TLE_LINE1,TLE_LINE2,SEMIMAJOR_AXIS,PERIOD,APOGEE,PERIGEE,DECAYED
50823.0,STARLINK-3334,PAYLOAD,2022-12-20 13:04:43,15.08849433,0.0002227,53.2193,44.5666,36.0353,324.0789,0.000168,2.387e-05,0.0,0 STARLINK-3334,1 50823U 22001W   22354.54495159  .00002387  00000-0  16800-3 0  9999,2 50823  53.2193  44.5666 0002227  36.0353 324.0789 15.08849433 54284,6917.852,95.437,541.257,538.1759999999998,0.0
50823.0,STARLINK-3334,PAYLOAD,2022-12-21 12:55:32,15.0882988,0.0002053,53.2206,40.1051,35.4903,324.6226,1.6728e-05,-2.2e-07,0.0,0 STARLINK-3334,1 50823U 22001W   22355.53857179 -.00000022  00000-0  16728-4 0  9998,2 50823  53.2206  40.1051 0002053  35.4903 324.6226 15.08829880 54433,6917.911,95.438,541.197,538.356,0.0
50823.0,STARLINK-3334,PAYLOAD,2022-12-22 12:46:19,15.08839849,0.0002202,53.2169,35.6463,31.2523,328.86,-7.3585e-05,-1.459e-05,0.0,0 STARLINK-3334,1 50823U 22001W   22356.53216920 -.00001459  00000-0 -73585-4 0  9992,2 50823  53.2169  35.6463 0002202  31.2523 328.8600 15.08839849 54589,6917.880999999999,95.438,541.269,538.2230000000002,0.0
50823.0,STARLINK-3334,PAYLOAD,2022-12-22 14:21:42,15.08840632,0.0002213,53.217,35.3492,31.6238,328.4887,-7.1907e-05,-1.433e-05,0.0,0 STARLINK-3334,1 50823U 22001W   22356.59840873 -.00001433  00000-0 -71907-4 0  9996,2 50823  53.2170  35.3492 0002213  31.6238 328.4887 15.08840632 53314,6917.878000000002,95.438,541.274,538.2130000000002,0.0
50823.0,STARLINK-3334,PAYLOAD,2022-12-23 09:26:20,15.08827309,0.0002183,53.2169,31.7807,32.4289,327.6837,8.0615e-05,9.95e-06,0.0,0 STARLINK-3334,1 50823U 22001W   22357.39329542  .00000995  00000-0  80615-4 0  9996,2 50823  53.2169  31.7807 0002183  32.4289 327.6837 15.08827309 54710,6917.919,95.438,541.294,538.274,0.0
50823.0,STARLINK-3334,PAYLOAD,2022-12-23 18:58:38,15.08837604,0.0002217,53.2169,29.9963,33.8682,326.2452,0.00015746,2.218e-05,0.0,0 STARLINK-3334,1 50823U 22001W   22357.79072891  .00002218  00000-0  15746-3 0  9994,2 50823  53.2169  29.9963 0002217  33.8682 326.2452 15.08837604 53493,6917.888000000001,95.438,541.286,538.219,0.0
50823.0,STARLINK-3334,PAYLOAD,2022-12-24 10:52:30,15.08838677,0.0002273,53.2169,27.0225,35.7586,324.3558,8.9024e-05,1.129e-05,0.0,0 STARLINK-3334,1 50823U 22001W   22358.45313122  .00001129  00000-0  89024-4 0  9994,2 50823  53.2169  27.0225 0002273  35.7586 324.3558 15.08838677 53597,6917.884,95.438,541.322,538.177,0.0
50823.0,STARLINK-3334,PAYLOAD,2022-12-24 18:49:26,15.08830579,0.0002275,53.2167,25.5356,36.4246,323.69,3.9958e-05,3.48e-06,0.0,0 STARLINK-3334,1 50823U 22001W   22358.78433869  .00000348  00000-0  39958-4 0  9994,2 50823  53.2167  25.5356 0002275  36.4246 323.6900 15.08830579 54920,6917.909000000002,95.438,541.3480000000002,538.2,0.0
50823.0,STARLINK-3334,PAYLOAD,2022-12-25 02:46:21,15.08840602,0.00024,53.2171,24.0483,35.9345,324.1808,7.756399999999999e-05,9.46e-06,0.0,0 STARLINK-3334,1 50823U 22001W   22359.11553186  .00000946  00000-0  77564-4 0  9996,2 50823  53.2171  24.0483 0002400  35.9345 324.1808 15.08840602 54970,6917.879,95.438,541.404,538.0830000000002,0.0
50823.0,STARLINK-3334,PAYLOAD,2022-12-25 12:18:41,15.0883492,0.0002128,53.2169,22.2648,33.9217,326.1911,3.9446e-05,3.4e-06,0.0,0 STARLINK-3334,1 50823U 22001W   22359.51297603  .00000340  00000-0  39446-4 0  9994,2 50823  53.2169  22.2648 0002128  33.9217 326.1911 15.08834920 53751,6917.896,95.438,541.2330000000002,538.289,0.0
50823.0,STARLINK-3334,PAYLOAD,2022-12-26 18:31:00,15.08839087,0.0002391,53.217,16.6142,39.3771,320.7395,9.0296e-05,1.149e-05,0.0,0 STARLINK-3334,1 50823U 22001W   22360.77153532  .00001149  00000-0  90296-4 0  9994,2 50823  53.2170  16.6142 0002391  39.3771 320.7395 15.08839087 55225,6917.8830000000025,95.438,541.4019999999998,538.094,0.0
50823.0,STARLINK-3334,PAYLOAD,2022-12-27 10:24:50,15.08858503,0.0002062,53.2164,13.6393,32.4769,327.635,0.00013014,1.785e-05,0.0,0 STARLINK-3334,1 50823U 22001W   22361.43391661  .00001785  00000-0  13014-3 0  9993,2 50823  53.2164  13.6393 0002062  32.4769 327.6350 15.08858503 55321,6917.824000000001,95.436,541.115,538.262,0.0
50823.0,STARLINK-3334,PAYLOAD,2022-12-28 00:43:19,15.08839073,0.0002523,53.2167,10.9649,34.0321,326.0833,8.724299999999999e-05,1.1e-05,0.0,0 STARLINK-3334,1 50823U 22001W   22362.03009119  .00001100  00000-0  87243-4 0  9991,2 50823  53.2167  10.9649 0002523  34.0321 326.0833 15.08839073 55412,6917.8830000000025,95.438,541.494,538.003,0.0
50823.0,STARLINK-3334,PAYLOAD,2022-12-29 11:41:49,15.08834361,0.0002323,53.217,4.4215,36.9271,323.188,-0.00024985,-4.262e-05,0.0,0 STARLINK-3334,1 50823U 22001W   22363.48738334 -.00004262  00000-0 -24985-3 0  9996,2 50823  53.2170   4.4215 0002323  36.9271 323.1880 15.08834361 55635,6917.898,95.438,541.37,538.156,0.0
50823.0,STARLINK-3334,PAYLOAD,2022-12-30 06:46:27,15.08835245,0.0002376,53.2166,0.8537,35.7551,324.3599,2.7862e-05,1.55e-06,0.0,0 STARLINK-3334,1 50823U 22001W   22364.28226101  .00000155  00000-0  27862-4 0  9992,2 50823  53.2166   0.8537 0002376  35.7551 324.3599 15.08835245 54476,6917.895,95.438,541.404,538.116,0.0
50823.0,STARLINK-3334,PAYLOAD,2022-12-30 11:32:36,15.08841325,0.0002446,53.2171,359.9608,38.1533,321.9632,6.7765e-05,7.9e-06,0.0,0 STARLINK-3334,1 50823U 22001W   22364.48097672  .00000790  00000-0  67765-4 0  9994,2 50823  53.2171 359.9608 0002446  38.1533 321.9632 15.08841325 55786,6917.876,95.437,541.433,538.049,0.0
50823.0,STARLINK-3334,PAYLOAD,2022-12-31 06:37:12,15.08851326,0.0002362,53.2178,356.3919,38.4981,321.6179,0.0003162,4.749e-05,0.0,0 STARLINK-3334,1 50823U 22001W   22365.27584083  .00004749  00000-0  31620-3 0  9997,2 50823  53.2178 356.3919 0002362  38.4981 321.6179 15.08851326 55905,6917.846,95.437,541.345,538.077,0.0
50823.0,STARLINK-3334,PAYLOAD,2022-12-31 16:09:32,15.0884215,0.0002432,53.2166,354.6088,37.7586,322.3576,0.00019338,2.791e-05,0.0,0 STARLINK-3334,1 50823U 22001W   22365.67328930  .00002791  00000-0  19338-3 0  9995,2 50823  53.2166 354.6088 0002432  37.7586 322.3576 15.08842150 55961,6917.874,95.437,541.4209999999998,538.056,0.0
50823.0,STARLINK-3334,PAYLOAD,2023-01-01 08:03:25,15.08826223,0.0002415,53.2172,351.6345,38.8904,321.2262,-4.6303e-05,-1.025e-05,0.0,0 STARLINK-3334,1 50823U 22001W   23001.33570989 -.00001025  00000-0 -46303-4 0  9993,2 50823  53.2172 351.6345 0002415  38.8904 321.2262 15.08826223 56063,6917.9230000000025,95.438,541.4580000000002,538.117,0.0
50823.0,STARLINK-3334,PAYLOAD,2023-01-01 09:38:47,15.08827221,0.0002467,53.2166,351.3376,39.8836,320.2337,-0.00023201,-3.978e-05,0.0,0 STARLINK-3334,1 50823U 22001W   23001.40194116 -.00003978  00000-0 -23201-3 0  9995,2 50823  53.2166 351.3376 0002467  39.8836 320.2337 15.08827221 56071,6917.919,95.438,541.491,538.078,0.0
50823.0,STARLINK-3334,PAYLOAD,2023-01-01 22:21:52,15.08834654,0.0002400999999999,53.2168,348.9583,37.6598,322.4562,-0.00018393,-3.214e-05,0.0,0 STARLINK-3334,1 50823U 22001W   23001.93185626 -.00003214  00000-0 -18393-3 0  9998,2 50823  53.2168 348.9583 0002401  37.6598 322.4562 15.08834654 54872,6917.897,95.438,541.423,538.101,0.0
50823.0,STARLINK-3334,PAYLOAD,2023-01-01 23:57:15,15.08838372,0.0002419,53.2165,348.6612,38.1633,321.953,-8.4196e-05,-1.628e-05,0.0,0 STARLINK-3334,1 50823U 22001W   23001.99809550 -.00001628  00000-0 -84196-4 0  9995,2 50823  53.2165 348.6612 0002419  38.1633 321.9530 15.08838372 56168,6917.885,95.438,541.424,538.077,0.0
50823.0,STARLINK-3334,PAYLOAD,2023-01-02 09:29:34,15.08844181,0.000235,53.2161,346.8771,35.8812,324.2337,0.0007369,0.00011461,0.0,0 STARLINK-3334,1 50823U 22001W   23002.39553717  .00011461  00000-0  73690-3 0  9991,2 50823  53.2161 346.8771 0002350  35.8812 324.2337 15.08844181 54947,6917.868,95.437,541.3580000000002,538.107,0.0
50823.0,STARLINK-3334,PAYLOAD,2023-01-02 15:51:07,15.08843456,0.0002420999999999,53.2157,345.6875,41.2684,318.849,0.00058975,9.111e-05,0.0,0 STARLINK-3334,1 50823U 22001W   23002.66049859  .00009111  00000-0  58975-3 0  9996,2 50823  53.2157 345.6875 0002421  41.2684 318.8490 15.08843456 54988,6917.87,95.437,541.41,538.06,0.0
50823.0,STARLINK-3334,PAYLOAD,2023-01-03 07:44:58,15.08837874,0.000215,53.2167,342.7152,33.0713,327.0414,3.3784e-05,2.49e-06,0.0,0 STARLINK-3334,1 50823U 22001W   23003.32289910  .00000249  00000-0  33784-4 0  9999,2 50823  53.2167 342.7152 0002150  33.0713 327.0414 15.08837874 56365,6917.887,95.438,541.239,538.265,0.0
50823.0,STARLINK-3334,PAYLOAD,2023-01-04 04:24:59,15.08839407,0.0002506999999999,53.2163,338.8474,42.2489,317.8696,0.00014396,2.003e-05,0.0,0 STARLINK-3334,1 50823U 22001W   23004.18402354  .00002003  00000-0  14396-3 0  9990,2 50823  53.2163 338.8474 0002507  42.2489 317.8696 15.08839407 55218,6917.882,95.438,541.482,538.013,0.0
50823.0,STARLINK-3334,PAYLOAD,2023-01-04 15:32:40,15.0885899,0.0002316,53.2163,336.7665,41.7666,318.3503,0.00049551,7.611e-05,0.0,0 STARLINK-3334,1 50823U 22001W   23004.64769663  .00007611  00000-0  49551-3 0  9991,2 50823  53.2163 336.7665 0002316  41.7666 318.3503 15.08858990 56566,6917.821999999999,95.436,541.29,538.085,0.0
50823.0,STARLINK-3334,PAYLOAD,2023-01-05 07:26:31,15.08866389,0.0002381999999999,53.2158,333.7933,41.6795,318.4379,0.00057615,8.9e-05,0.0,0 STARLINK-3334,1 50823U 22001W   23005.31008943  .00008900  00000-0  57615-3 0  9995,2 50823  53.2158 333.7933 0002382  41.6795 318.4379 15.08866389 55382,6917.8,95.436,541.313,538.0169999999998,0.0
50823.0,STARLINK-3334,PAYLOAD,2023-01-05 15:23:26,15.08868485,0.0002348,53.2161,332.3051,42.1726,317.9446,0.00047746,7.325e-05,0.0,0 STARLINK-3334,1 50823U 22001W   23005.64128456  .00007325  00000-0  47746-3 0  9997,2 50823  53.2161 332.3051 0002348  42.1726 317.9446 15.08868485 55438,6917.793000000002,95.436,541.283,538.034,0.0
